IRIDIUM 57              
1 25273U 98019B   24152.97156655  .00000535  00000+0  18041-3 0  9993
2 25273  86.3935 304.9164 0002057  89.5066 270.6366 14.35229396370307
IRIDIUM 63              
1 25286U 98021B   24152.79237307  .00000480  00000+0  15930-3 0  9997
2 25286  86.4002 241.8788 0002352  91.2509 268.8957 14.35781847369103
IRIDIUM 69              
1 25319U 98026A   24152.83959191  .00000713  00000+0  22020-3 0  9993
2 25319  86.3981 256.2971 0002672 149.8677 210.2676 14.40014419368164
IRIDIUM 71              
1 25320U 98026B   24152.77369467  .00000837  00000+0  25793-3 0  9996
2 25320  86.3985 251.0881 0000288 173.8416 186.2787 14.40329139368671
IRIDIUM 73              
1 25344U 98032C   24153.22823976  .00000662  00000+0  16389-3 0  9997
2 25344  86.4456 208.3667 0002205 107.8499 252.2947 14.50553510375614
IRIDIUM 82              
1 25467U 98051A   24152.90574394  .00011298  00000+0  57726-3 0  9992
2 25467  86.3740 293.4960 0126176 280.8301  77.8757 15.09770075366032
IRIDIUM 2               
1 25527U 98066A   24152.89470743  .00249545  00000+0  10509-2 0  9991
2 25527  85.4973 313.7971 0002574 268.8167  91.2815 15.84846174405346
