<?xml version="1.0" encoding="UTF-8"?>
<ndm xmlns:xsi="http://www.w3.org/2001/XMLSchema-instance" xsi:noNamespaceSchemaLocation="https://sanaregistry.org/r/ndmxml_unqualified/ndmxml-2.0.0-master-2.0.xsd">
<omm id="CCSDS_OMM_VERS" version="2.0">
<header><CREATION_DATE/><ORIGINATOR/></header><body><segment><metadata><OBJECT_NAME>IRIDIUM 57</OBJECT_NAME><OBJECT_ID>1998-019B</OBJECT_ID><CENTER_NAME>EARTH</CENTER_NAME><REF_FRAME>TEME</REF_FRAME><TIME_SYSTEM>UTC</TIME_SYSTEM><MEAN_ELEMENT_THEORY>SGP4</MEAN_ELEMENT_THEORY></metadata><data><meanElements><EPOCH>2024-05-31T23:19:03.349920</EPOCH><MEAN_MOTION>14.35229396</MEAN_MOTION><ECCENTRICITY>.0002057</ECCENTRICITY><INCLINATION>86.3935</INCLINATION><RA_OF_ASC_NODE>304.9164</RA_OF_ASC_NODE><ARG_OF_PERICENTER>89.5066</ARG_OF_PERICENTER><MEAN_ANOMALY>270.6366</MEAN_ANOMALY></meanElements><tleParameters><EPHEMERIS_TYPE>0</EPHEMERIS_TYPE><CLASSIFICATION_TYPE>U</CLASSIFICATION_TYPE><NORAD_CAT_ID>25273</NORAD_CAT_ID><ELEMENT_SET_NO>999</ELEMENT_SET_NO><REV_AT_EPOCH>37030</REV_AT_EPOCH><BSTAR>.18041E-3</BSTAR><MEAN_MOTION_DOT>.535E-5</MEAN_MOTION_DOT><MEAN_MOTION_DDOT>0</MEAN_MOTION_DDOT></tleParameters></data></segment></body></omm>
<omm id="CCSDS_OMM_VERS" version="2.0">
<header><CREATION_DATE/><ORIGINATOR/></header><body><segment><metadata><OBJECT_NAME>IRIDIUM 63</OBJECT_NAME><OBJECT_ID>1998-021B</OBJECT_ID><CENTER_NAME>EARTH</CENTER_NAME><REF_FRAME>TEME</REF_FRAME><TIME_SYSTEM>UTC</TIME_SYSTEM><MEAN_ELEMENT_THEORY>SGP4</MEAN_ELEMENT_THEORY></metadata><data><meanElements><EPOCH>2024-05-31T19:01:01.033248</EPOCH><MEAN_MOTION>14.35781847</MEAN_MOTION><ECCENTRICITY>.0002352</ECCENTRICITY><INCLINATION>86.4002</INCLINATION><RA_OF_ASC_NODE>241.8788</RA_OF_ASC_NODE><ARG_OF_PERICENTER>91.2509</ARG_OF_PERICENTER><MEAN_ANOMALY>268.8957</MEAN_ANOMALY></meanElements><tleParameters><EPHEMERIS_TYPE>0</EPHEMERIS_TYPE><CLASSIFICATION_TYPE>U</CLASSIFICATION_TYPE><NORAD_CAT_ID>25286</NORAD_CAT_ID><ELEMENT_SET_NO>999</ELEMENT_SET_NO><REV_AT_EPOCH>36910</REV_AT_EPOCH><BSTAR>.1593E-3</BSTAR><MEAN_MOTION_DOT>.48E-5</MEAN_MOTION_DOT><MEAN_MOTION_DDOT>0</MEAN_MOTION_DDOT></tleParameters></data></segment></body></omm>
<omm id="CCSDS_OMM_VERS" version="2.0">
<header><CREATION_DATE/><ORIGINATOR/></header><body><segment><metadata><OBJECT_NAME>IRIDIUM 69</OBJECT_NAME><OBJECT_ID>1998-026A</OBJECT_ID><CENTER_NAME>EARTH</CENTER_NAME><REF_FRAME>TEME</REF_FRAME><TIME_SYSTEM>UTC</TIME_SYSTEM><MEAN_ELEMENT_THEORY>SGP4</MEAN_ELEMENT_THEORY></metadata><data><meanElements><EPOCH>2024-05-31T20:09:00.741024</EPOCH><MEAN_MOTION>14.40014419</MEAN_MOTION><ECCENTRICITY>.0002672</ECCENTRICITY><INCLINATION>86.3981</INCLINATION><RA_OF_ASC_NODE>256.2971</RA_OF_ASC_NODE><ARG_OF_PERICENTER>149.8677</ARG_OF_PERICENTER><MEAN_ANOMALY>210.2676</MEAN_ANOMALY></meanElements><tleParameters><EPHEMERIS_TYPE>0</EPHEMERIS_TYPE><CLASSIFICATION_TYPE>U</CLASSIFICATION_TYPE><NORAD_CAT_ID>25319</NORAD_CAT_ID><ELEMENT_SET_NO>999</ELEMENT_SET_NO><REV_AT_EPOCH>36816</REV_AT_EPOCH><BSTAR>.2202E-3</BSTAR><MEAN_MOTION_DOT>.713E-5</MEAN_MOTION_DOT><MEAN_MOTION_DDOT>0</MEAN_MOTION_DDOT></tleParameters></data></segment></body></omm>
<omm id="CCSDS_OMM_VERS" version="2.0">
<header><CREATION_DATE/><ORIGINATOR/></header><body><segment><metadata><OBJECT_NAME>IRIDIUM 71</OBJECT_NAME><OBJECT_ID>1998-026B</OBJECT_ID><CENTER_NAME>EARTH</CENTER_NAME><REF_FRAME>TEME</REF_FRAME><TIME_SYSTEM>UTC</TIME_SYSTEM><MEAN_ELEMENT_THEORY>SGP4</MEAN_ELEMENT_THEORY></metadata><data><meanElements><EPOCH>2024-05-31T18:34:07.219488</EPOCH><MEAN_MOTION>14.40329139</MEAN_MOTION><ECCENTRICITY>.0000288</ECCENTRICITY><INCLINATION>86.3985</INCLINATION><RA_OF_ASC_NODE>251.0881</RA_OF_ASC_NODE><ARG_OF_PERICENTER>173.8416</ARG_OF_PERICENTER><MEAN_ANOMALY>186.2787</MEAN_ANOMALY></meanElements><tleParameters><EPHEMERIS_TYPE>0</EPHEMERIS_TYPE><CLASSIFICATION_TYPE>U</CLASSIFICATION_TYPE><NORAD_CAT_ID>25320</NORAD_CAT_ID><ELEMENT_SET_NO>999</ELEMENT_SET_NO><REV_AT_EPOCH>36867</REV_AT_EPOCH><BSTAR>.25793E-3</BSTAR><MEAN_MOTION_DOT>.837E-5</MEAN_MOTION_DOT><MEAN_MOTION_DDOT>0</MEAN_MOTION_DDOT></tleParameters></data></segment></body></omm>
<omm id="CCSDS_OMM_VERS" version="2.0">
<header><CREATION_DATE/><ORIGINATOR/></header><body><segment><metadata><OBJECT_NAME>IRIDIUM 73</OBJECT_NAME><OBJECT_ID>1998-032C</OBJECT_ID><CENTER_NAME>EARTH</CENTER_NAME><REF_FRAME>TEME</REF_FRAME><TIME_SYSTEM>UTC</TIME_SYSTEM><MEAN_ELEMENT_THEORY>SGP4</MEAN_ELEMENT_THEORY></metadata><data><meanElements><EPOCH>2024-06-01T05:28:39.915264</EPOCH><MEAN_MOTION>14.50553510</MEAN_MOTION><ECCENTRICITY>.0002205</ECCENTRICITY><INCLINATION>86.4456</INCLINATION><RA_OF_ASC_NODE>208.3667</RA_OF_ASC_NODE><ARG_OF_PERICENTER>107.8499</ARG_OF_PERICENTER><MEAN_ANOMALY>252.2947</MEAN_ANOMALY></meanElements><tleParameters><EPHEMERIS_TYPE>0</EPHEMERIS_TYPE><CLASSIFICATION_TYPE>U</CLASSIFICATION_TYPE><NORAD_CAT_ID>25344</NORAD_CAT_ID><ELEMENT_SET_NO>999</ELEMENT_SET_NO><REV_AT_EPOCH>37561</REV_AT_EPOCH><BSTAR>.16389E-3</BSTAR><MEAN_MOTION_DOT>.662E-5</MEAN_MOTION_DOT><MEAN_MOTION_DDOT>0</MEAN_MOTION_DDOT></tleParameters></data></segment></body></omm>
<omm id="CCSDS_OMM_VERS" version="2.0">
<header><CREATION_DATE/><ORIGINATOR/></header><body><segment><metadata><OBJECT_NAME>IRIDIUM 82</OBJECT_NAME><OBJECT_ID>1998-051A</OBJECT_ID><CENTER_NAME>EARTH</CENTER_NAME><REF_FRAME>TEME</REF_FRAME><TIME_SYSTEM>UTC</TIME_SYSTEM><MEAN_ELEMENT_THEORY>SGP4</MEAN_ELEMENT_THEORY></metadata><data><meanElements><EPOCH>2024-05-31T21:44:16.276416</EPOCH><MEAN_MOTION>15.09770075</MEAN_MOTION><ECCENTRICITY>.0126176</ECCENTRICITY><INCLINATION>86.3740</INCLINATION><RA_OF_ASC_NODE>293.4960</RA_OF_ASC_NODE><ARG_OF_PERICENTER>280.8301</ARG_OF_PERICENTER><MEAN_ANOMALY>77.8757</MEAN_ANOMALY></meanElements><tleParameters><EPHEMERIS_TYPE>0</EPHEMERIS_TYPE><CLASSIFICATION_TYPE>U</CLASSIFICATION_TYPE><NORAD_CAT_ID>25467</NORAD_CAT_ID><ELEMENT_SET_NO>999</ELEMENT_SET_NO><REV_AT_EPOCH>36603</REV_AT_EPOCH><BSTAR>.57726E-3</BSTAR><MEAN_MOTION_DOT>.11298E-3</MEAN_MOTION_DOT><MEAN_MOTION_DDOT>0</MEAN_MOTION_DDOT></tleParameters></data></segment></body></omm>
<omm id="CCSDS_OMM_VERS" version="2.0">
<header><CREATION_DATE/><ORIGINATOR/></header><body><segment><metadata><OBJECT_NAME>IRIDIUM 2</OBJECT_NAME><OBJECT_ID>1998-066A</OBJECT_ID><CENTER_NAME>EARTH</CENTER_NAME><REF_FRAME>TEME</REF_FRAME><TIME_SYSTEM>UTC</TIME_SYSTEM><MEAN_ELEMENT_THEORY>SGP4</MEAN_ELEMENT_THEORY></metadata><data><meanElements><EPOCH>2024-05-31T21:28:22.721952</EPOCH><MEAN_MOTION>15.84846174</MEAN_MOTION><ECCENTRICITY>.0002574</ECCENTRICITY><INCLINATION>85.4973</INCLINATION><RA_OF_ASC_NODE>313.7971</RA_OF_ASC_NODE><ARG_OF_PERICENTER>268.8167</ARG_OF_PERICENTER><MEAN_ANOMALY>91.2815</MEAN_ANOMALY></meanElements><tleParameters><EPHEMERIS_TYPE>0</EPHEMERIS_TYPE><CLASSIFICATION_TYPE>U</CLASSIFICATION_TYPE><NORAD_CAT_ID>25527</NORAD_CAT_ID><ELEMENT_SET_NO>999</ELEMENT_SET_NO><REV_AT_EPOCH>40534</REV_AT_EPOCH><BSTAR>.10509E-2</BSTAR><MEAN_MOTION_DOT>.249545E-2</MEAN_MOTION_DOT><MEAN_MOTION_DDOT>0</MEAN_MOTION_DDOT></tleParameters></data></segment></body></omm>
</ndm>
